STARLINK-31182          
1 59159U 24044H   26068.45386158 -.00003358  00000+0 -11253-3 0  9990
2 59159  42.9980 108.0029 0000388 227.2517 132.8302 15.27593573113560
FLOCK 4G-6              
1 62660U 25009BD  26068.71061311  .00012261  00000+0  45910-3 0  9991
2 62660  97.3980 150.7943 0002380 348.2637  11.8546 15.27432125121307
